IRIDIUM 163             
1 43575U 18061G   26194.51530588  .00000094  00000+0  26363-4 0  9993
2 43575  86.3937  45.7087 0002151  85.6258 274.5184 14.34217599417150
IRIDIUM 156             
1 43576U 18061H   26194.00155643  .00000060  00000+0  14316-4 0  9991
2 43576  86.3936  45.9308 0002075  91.5811 268.5623 14.34217488417073
IRIDIUM 164             
1 43577U 18061J   26194.54067875  .00000148  00000+0  45624-4 0  9993
2 43577  86.3938  45.7464 0002307  89.0813 271.0647 14.34217842417191
IRIDIUM 159             
1 43578U 18061K   26194.50896331  .00000020  00000+0  11916-6 0  9995
2 43578  86.3934  45.6958 0002031  84.8808 275.2620 14.34217161417153
IRIDIUM 180             
1 43922U 19002A   26194.43869237  .00000109  00000+0  31904-4 0  9996
2 43922  86.3990 342.6231 0002194  90.8391 269.3056 14.34218051392750
IRIDIUM 176             
1 43923U 19002B   26194.46259760  .00000413  00000+0  61607-4 0  9995
2 43923  86.6109 342.5528 0002342  89.7873 270.3613 14.72247791403110
IRIDIUM 168             
1 43924U 19002C   26194.50211601  .00000032  00000+0  42225-5 0  9996
2 43924  86.3991 342.6745 0002239  92.3880 267.7573 14.34217044392749
IRIDIUM 173             
1 43925U 19002D   26194.48943199 -.00000079  00000+0 -35373-4 0  9996
2 43925  86.3986 342.5680 0001999  91.6475 268.4949 14.34216738392727
IRIDIUM 169             
1 43926U 19002E   26194.47473221  .00000032  00000+0  40206-5 0  9999
2 43926  86.4219  14.1994 0001833 101.8588 258.2816 14.38613085394007
IRIDIUM 172             
1 43927U 19002F   26194.48309021  .00000039  00000+0  69627-5 0  9992
2 43927  86.3986 342.5781 0002184  90.5435 269.6011 14.34217575392736
IRIDIUM 175             
1 43928U 19002G   26194.19948658  .00000179  00000+0  46765-4 0  9998
2 43928  86.4512 279.6484 0005227 119.2126 240.9599 14.43626590402736
IRIDIUM 171             
1 43929U 19002H   26194.46406206  .00000037  00000+0  61576-5 0  9998
2 43929  86.3996 342.8951 0002220  95.0461 265.0988 14.34217544392729
IRIDIUM 170             
1 43930U 19002J   26194.46876824  .00000415  00000+0  61879-4 0  9992
2 43930  86.6108 342.5524 0002287  86.1535 273.9943 14.72248364403120
IRIDIUM 167             
1 43931U 19002K   26194.45771931  .00000045  00000+0  89616-5 0  9994
2 43931  86.3989 342.6115 0002266  98.9821 261.1631 14.34217687392726
IRIDIUM 181             
1 56726U 23068S   26194.52095042  .00000183  00000+0  48384-4 0  9996
2 56726  86.4475  45.7783 0002406  83.7767 276.3708 14.43311699166238
IRIDIUM 177             
1 56727U 23068T   26194.41914179  .00000573  00000+0  72199-4 0  9990
2 56727  86.1984 316.3369 0002141  94.2852 265.8614 14.80028849170244
IRIDIUM 174             
1 56728U 23068U   26194.45633517  .00000426  00000+0  63614-4 0  9998
2 56728  86.6117 342.7076 0002013  86.2202 273.9245 14.72256916169881
IRIDIUM 178             
1 56729U 23068V   26194.47574448  .00000190  00000+0  21609-4 0  9994
2 56729  86.6534  14.3719 0002318  90.4956 269.6531 14.80025671170256
IRIDIUM 179             
1 56730U 23068W   26194.47039689  .00000497  00000+0  62290-4 0  9990
2 56730  86.6767  23.4317 0002345  93.8388 266.3101 14.80033449170256
